NORAD_CAT_ID,OBJECT_NAME,OBJECT_TYPE,EPOCH,MEAN_MOTION,ECCENTRICITY,INCLINATION,RA_OF_ASC_NODE,ARG_OF_PERICENTER,MEAN_ANOMALY,BSTAR,MEAN_MOTION_DOT,MEAN_MOTION_DDOT,TLE_LINE0,TLE_LINE1,TLE_LINE2,SEMIMAJOR_AXIS,PERIOD,APOGEE,PERIGEE,DECAYED
54163.0,STARLINK-5161,PAYLOAD,2024-05-01 08:59:21,15.08843241,0.0001624,53.2156,164.8773,76.7258,283.3915,0.00010387,1.366e-05,0.0,0 STARLINK-5161,1 54163U 22141G   24122.37455688  .00001366  00000-0  10387-3 0  9994,2 54163  53.2156 164.8773 0001624  76.7258 283.3915 15.08843241 83601,6917.87,95.437,540.859,538.612,0.0
54163.0,STARLINK-5161,PAYLOAD,2024-05-01 20:07:03,15.08857533,0.0002155,53.2156,162.7961,77.6487,282.4746,0.00035784,5.414e-05,0.0,0 STARLINK-5161,1 54163U 22141G   24122.83823214  .00005414  00000-0  35784-3 0  9995,2 54163  53.2156 162.7961 0002155  77.6487 282.4746 15.08857533 83679,6917.827,95.436,541.183,538.201,0.0
54163.0,STARLINK-5161,PAYLOAD,2024-05-02 02:28:33,15.08885823,2.39e-05,53.2178,161.6045,342.5021,17.5963,0.00083647,0.00013066,0.0,0 STARLINK-5161,1 54163U 22141G   24123.10317126  .00013066  00000-0  83647-3 0  9999,2 54163  53.2178 161.6045 0000239 342.5021  17.5963 15.08885823 83719,6917.74,95.435,539.771,539.44,0.0
54163.0,STARLINK-5161,PAYLOAD,2024-05-02 08:50:08,15.08838884,0.0001966,53.2157,160.4166,65.5268,294.5929,-6.8253e-05,-1.374e-05,0.0,0 STARLINK-5161,1 54163U 22141G   24123.36815076 -.00001374  00000-0 -68253-4 0  9992,2 54163  53.2157 160.4166 0001966  65.5268 294.5929 15.08838884 83758,6917.884,95.438,541.109,538.389,0.0
54163.0,STARLINK-5161,PAYLOAD,2024-05-03 08:40:54,15.0884183,0.0001696,53.2159,155.9554,86.7977,273.321,-6.7224e-05,-1.358e-05,0.0,0 STARLINK-5161,1 54163U 22141G   24124.36174409 -.00001358  00000-0 -67224-4 0  9990,2 54163  53.2159 155.9554 0001696  86.7977 273.3210 15.08841830 83902,6917.875,95.437,540.913,538.567,0.0
54163.0,STARLINK-5161,PAYLOAD,2024-05-04 05:20:56,15.08829965,0.0001386,53.2157,152.0886,90.8479,269.2672,-0.00049724,-8.191e-05,0.0,0 STARLINK-5161,1 54163U 22141G   24125.22287132 -.00008191  00000-0 -49724-3 0  9990,2 54163  53.2157 152.0886 0001386  90.8479 269.2672 15.08829965 84031,6917.911,95.438,540.735,538.817,0.0
54163.0,STARLINK-5161,PAYLOAD,2024-05-04 08:31:41,15.08854233,0.0001286,53.2158,151.4936,79.1267,280.987,-0.0011041,-0.00017823,0.0,0 STARLINK-5161,1 54163U 22141G   24125.35533684 -.00017823  00000-0 -11041-2 0  9992,2 54163  53.2158 151.4936 0001286  79.1267 280.9870 15.08854233 84053,6917.837,95.437,540.592,538.812,0.0
54163.0,STARLINK-5161,PAYLOAD,2024-05-05 05:11:44,15.08823759,0.0001388,53.2158,147.6285,95.7905,264.3245,7.8614e-05,9.63e-06,0.0,0 STARLINK-5161,1 54163U 22141G   24126.21649011  .00000963  00000-0  78614-4 0  9996,2 54163  53.2158 147.6285 0001388  95.7905 264.3245 15.08823759 84188,6917.93,95.439,540.755,538.835,0.0
54163.0,STARLINK-5161,PAYLOAD,2024-05-05 06:47:07,15.08825137,0.0001366,53.2166,147.3309,96.9974,263.1174,7.487e-05,9.03e-06,0.0,0 STARLINK-5161,1 54163U 22141G   24126.28273039  .00000903  00000-0  74870-4 0  9990,2 54163  53.2166 147.3309 0001366  96.9974 263.1174 15.08825137 84197,6917.926,95.438,540.736,538.846,0.0
54163.0,STARLINK-5161,PAYLOAD,2024-05-06 05:02:30,15.08845737,0.0001223,53.2151,143.1666,95.6577,264.4555,0.00034687,5.238e-05,0.0,0 STARLINK-5161,1 54163U 22141G   24127.21007955  .00005238  00000-0  34687-3 0  9993,2 54163  53.2151 143.1666 0001223  95.6577 264.4555 15.08845737 84339,6917.863,95.437,540.574,538.882,0.0
54163.0,STARLINK-5161,PAYLOAD,2024-05-06 08:13:17,15.08856929,0.0001274,53.2145,142.5736,96.4273,263.6864,0.00057741,8.918e-05,0.0,0 STARLINK-5161,1 54163U 22141G   24127.34256101  .00008918  00000-0  57741-3 0  9990,2 54163  53.2145 142.5736 0001274  96.4273 263.6864 15.08856929 84352,6917.829,95.436,540.575,538.812,0.0
54163.0,STARLINK-5161,PAYLOAD,2024-05-06 17:45:35,15.08858951,0.000124,53.2139,140.7905,96.4622,263.6512,0.00050938,7.832e-05,0.0,0 STARLINK-5161,1 54163U 22141G   24127.73999975  .00007832  00000-0  50938-3 0  9991,2 54163  53.2139 140.7905 0001240  96.4622 263.6512 15.08858951 84418,6917.822,95.436,540.545,538.83,0.0
54163.0,STARLINK-5161,PAYLOAD,2024-05-07 04:53:17,15.08856671,0.0001927,53.2145,138.7049,91.0794,269.0419,0.00035179,5.318e-05,0.0,0 STARLINK-5161,1 54163U 22141G   24128.20367964  .00005318  00000-0  35179-3 0  9998,2 54163  53.2145 138.7049 0001927  91.0794 269.0419 15.08856671 84484,6917.829,95.437,541.027,538.361,0.0
54163.0,STARLINK-5161,PAYLOAD,2024-05-07 09:39:27,15.08845229,0.0001424,53.2159,137.8185,96.7326,263.3828,6.1519e-05,6.91e-06,0.0,0 STARLINK-5161,1 54163U 22141G   24128.40240033  .00000691  00000-0  61519-4 0  9994,2 54163  53.2159 137.8185 0001424  96.7326 263.3828 15.08845229 84517,6917.864,95.437,540.715,538.744,0.0
54163.0,STARLINK-5161,PAYLOAD,2024-05-07 17:36:23,15.08842392,0.0001601,53.2171,136.3276,95.2924,264.8251,-3.0599e-05,-7.75e-06,0.0,0 STARLINK-5161,1 54163U 22141G   24128.73360125 -.00000775  00000-0 -30599-4 0  9994,2 54163  53.2171 136.3276 0001601  95.2924 264.8251 15.08842392 84560,6917.873,95.437,540.846,538.631,0.0
54163.0,STARLINK-5161,PAYLOAD,2024-05-08 09:30:14,15.08848138,0.0001533,53.2175,133.354,97.2126,262.9041,-5.4287e-05,-1.152e-05,0.0,0 STARLINK-5161,1 54163U 22141G   24129.39600190 -.00001152  00000-0 -54287-4 0  9996,2 54163  53.2175 133.3540 0001533  97.2126 262.9041 15.08848138 84666,6917.856,95.437,540.781,538.66,0.0
54163.0,STARLINK-5161,PAYLOAD,2024-05-08 17:27:10,15.08846348,0.0001377,53.2164,131.8671,91.9509,268.1641,-0.00010303,-1.928e-05,0.0,0 STARLINK-5161,1 54163U 22141G   24129.72720258 -.00001928  00000-0 -10303-3 0  9992,2 54163  53.2164 131.8671 0001377  91.9509 268.1641 15.08846348 84715,6917.861,95.437,540.679,538.773,0.0
54163.0,STARLINK-5161,PAYLOAD,2024-05-09 09:21:01,15.08838652,0.0001411,53.2164,128.8934,89.5508,270.5646,3.4269e-05,2.57e-06,0.0,0 STARLINK-5161,1 54163U 22141G   24130.38960489  .00000257  00000-0  34269-4 0  9998,2 54163  53.2164 128.8934 0001411  89.5508 270.5646 15.08838652 84816,6917.885,95.438,540.726,538.773,0.0
54163.0,STARLINK-5161,PAYLOAD,2024-05-09 17:17:57,15.08843737,0.0001414,53.2167,127.4072,89.1433,270.9721,9.1802e-05,1.174e-05,0.0,0 STARLINK-5161,1 54163U 22141G   24130.72080134  .00001174  00000-0  91802-4 0  9991,2 54163  53.2167 127.4072 0001414  89.1433 270.9721 15.08843737 84866,6917.869,95.437,540.712,538.756,0.0
54163.0,STARLINK-5161,PAYLOAD,2024-05-10 04:25:38,15.08848629,0.0001401,53.2165,125.3255,88.9672,271.1481,0.00015139,2.123e-05,0.0,0 STARLINK-5161,1 54163U 22141G   24131.18447657  .00002123  00000-0  15139-3 0  9992,2 54163  53.2165 125.3255 0001401  88.9672 271.1481 15.08848629 84931,6917.854,95.437,540.688,538.75,0.0
54163.0,STARLINK-5161,PAYLOAD,2024-05-10 06:01:01,15.08850012,0.0001406,53.2163,125.0285,87.7562,272.3592,0.00015081,2.114e-05,0.0,0 STARLINK-5161,1 54163U 22141G   24131.25071582  .00002114  00000-0  15081-3 0  9996,2 54163  53.2163 125.0285 0001406  87.7562 272.3592 15.08850012 84945,6917.85,95.437,540.687,538.742,0.0
54163.0,STARLINK-5161,PAYLOAD,2024-05-10 17:08:43,15.08847219,0.0001401,53.2165,122.9471,87.1154,272.9998,0.00013594,1.877e-05,0.0,0 STARLINK-5161,1 54163U 22141G   24131.71439708  .00001877  00000-0  13594-3 0  9997,2 54163  53.2165 122.9471 0001401  87.1154 272.9998 15.08847219 85016,6917.858,95.437,540.693,538.754,0.0
54163.0,STARLINK-5161,PAYLOAD,2024-05-11 04:16:25,15.08848251,0.0001563,53.2173,120.8663,85.3724,274.7447,0.00016276,2.304e-05,0.0,0 STARLINK-5161,1 54163U 22141G   24132.17807703  .00002304  00000-0  16276-3 0  9998,2 54163  53.2173 120.8663 0001563  85.3724 274.7447 15.08848251 85080,6917.855,95.437,540.801,538.639,0.0
54163.0,STARLINK-5161,PAYLOAD,2024-05-11 09:02:33,15.08877963,0.0001371,53.216,119.9728,94.3491,265.7657,0.00040904,6.235e-05,0.0,0 STARLINK-5161,1 54163U 22141G   24132.37677762  .00006235  00000-0  40904-3 0  9992,2 54163  53.2160 119.9728 0001371  94.3491 265.7657 15.08877963 85114,6917.764,95.435,540.578,538.681,0.0
54163.0,STARLINK-5161,PAYLOAD,2024-05-12 04:07:13,15.08801663,0.0001272,53.2162,116.4054,75.0847,285.0286,-0.00071611,-0.00011655,0.0,0 STARLINK-5161,1 54163U 22141G   24133.17168928 -.00011655  00000-0 -71611-3 0  9993,2 54163  53.2162 116.4054 0001272  75.0847 285.0286 15.08801663 85231,6917.998,95.44,540.743,538.983,0.0
54163.0,STARLINK-5161,PAYLOAD,2024-05-12 23:11:52,15.08800551,6.37e-05,53.2159,112.834,98.5646,261.5418,-0.00035152,-5.871e-05,0.0,0 STARLINK-5161,1 54163U 22141G   24133.96658487 -.00005871  00000-0 -35152-3 0  9997,2 54163  53.2159 112.8340 0000637  98.5646 261.5418 15.08800551 85350,6918.001,95.44,540.307,539.425,0.0
54163.0,STARLINK-5161,PAYLOAD,2024-05-13 05:33:25,15.08810069,0.0001455,53.2164,111.6482,104.4486,255.6668,-0.00024427,-4.17e-05,0.0,0 STARLINK-5161,1 54163U 22141G   24134.23154401 -.00004170  00000-0 -24427-3 0  9999,2 54163  53.2164 111.6482 0001455 104.4486 255.6668 15.08810069 85398,6917.972,95.439,540.843,538.83,0.0
54163.0,STARLINK-5161,PAYLOAD,2024-05-13 15:05:44,15.08818166,0.000104,53.2148,109.8595,109.3927,250.7178,0.00014602,2.036e-05,0.0,0 STARLINK-5161,1 54163U 22141G   24134.62898523  .00002036  00000-0  14602-3 0  9993,2 54163  53.2148 109.8595 0001040 109.3927 250.7178 15.08818166 85453,6917.947,95.439,540.532,539.093,0.0
54163.0,STARLINK-5161,PAYLOAD,2024-05-14 05:24:13,15.08823506,0.0001381,53.2171,107.1872,118.2253,241.8879,0.00074633,0.00011604,0.0,0 STARLINK-5161,1 54163U 22141G   24135.22515418  .00011604  00000-0  74633-3 0  9990,2 54163  53.2171 107.1872 0001381 118.2253 241.8879 15.08823506 85540,6917.931,95.439,540.751,538.84,0.0
54163.0,STARLINK-5161,PAYLOAD,2024-05-14 14:56:31,15.08838641,0.0001131,53.2158,105.4019,94.8069,265.3052,0.00074337,0.00011562,0.0,0 STARLINK-5161,1 54163U 22141G   24135.62259232  .00011562  00000-0  74337-3 0  9997,2 54163  53.2158 105.4019 0001131  94.8069 265.3052 15.08838641 85603,6917.885,95.438,540.532,538.967,0.0
